ISS OBJECT XT           
1 66907U 98067XT  26109.55888258  .00415498  74749-4  14285-2 0  9993
2 66907  51.6200 214.4723 0011472 333.2606  26.7806 15.88963868 21638
ISS OBJECT XU           
1 66908U 98067XU  26109.98958199  .00365310  60410-4  12072-2 0  9992
2 66908  51.6192 212.0904 0011416 333.9645  26.0785 15.89766386 21706
SILVERSAT               
1 66909U 98067XV  26110.30149977  .01400443  13415-2  13903-2 0  9990
2 66909  51.6101 207.3485 0013785 338.7955  21.2486 16.10656402 21792
ISS OBJECT XW           
1 66910U 98067XW  26109.47462722  .00318697  00000+0  12783-2 0  9990
2 66910  51.6189 215.4060 0010632 327.7961  32.2392 15.84996751 21615
ISS OBJECT XY           
1 66912U 98067XY  26110.00357699  .00122650  00000+0  87892-3 0  9995
2 66912  51.6235 216.7540 0007245 326.6376  33.4165 15.72772208 21639
KNACKSAT-2              
1 67683U 98067XZ  26109.57423316  .00038891  00000+0  56864-3 0  9999
2 67683  51.6307 228.1722 0011885 340.4286  19.6247 15.55149881 11141
CORAL                   
1 67684U 98067YA  26109.55985891  .00097656  00000+0  11041-2 0  9990
2 67684  51.6282 226.5714 0015604 332.8930  27.1247 15.61515139 11167
GXIBA-1                 
1 67685U 98067YB  26109.61914789  .00045577  00000+0  64537-3 0  9990
2 67685  51.6296 227.7212 0013747 337.6554  22.3836 15.55920446 11154
UITMSAT-2               
1 67686U 98067YC  26110.03647409  .00052292  00000+0  69974-3 0  9993
2 67686  51.6300 225.2605 0010752 319.1163  40.9021 15.57425635 11226
HMU-SAT2                
1 67687U 98067YD  26110.01358095  .00038363  00000+0  55186-3 0  9995
2 67687  51.6309 225.8604 0009988 320.5824  39.4440 15.55623505 11132
LEOPARD                 
1 67688U 98067YE  26109.60181765  .00053374  00000+0  73319-3 0  9994
2 67688  51.6313 227.6090 0010319 317.4453  42.5738 15.56718917 11071
CREW DRAGON 12          
1 67796U 26031A   26110.13518311  .00007929  00000+0  15272-3 0  9996
2 67796  51.6328 227.4156 0006665 328.2959  31.7627 15.48842238562835
PROGRESS-MS 33          
1 68319U 26058A   26110.13518311  .00007929  00000+0  15272-3 0  9997
2 68319  51.6328 227.4156 0006665 328.2959  31.7627 15.48842238  3163
CYGNUS NG-24            
1 68689U 26079A   26110.13518311  .00007929  00000+0  15272-3 0  9990
2 68689  51.6328 227.4156 0006665 328.2959  31.7627 15.48842238  1318
