[{"OBJECT_NAME":"ISS OBJECT XT","OBJECT_ID":"1998-067XT","EPOCH":"2026-04-19T13:24:47.454912","MEAN_MOTION":15.88963868,"ECCENTRICITY":0.00114724,"INCLINATION":51.62,"RA_OF_ASC_NODE":214.4723,"ARG_OF_PERICENTER":333.2606,"MEAN_ANOMALY":26.7806,"EPHEMERIS_TYPE":0,"CLASSIFICATION_TYPE":"U","NORAD_CAT_ID":66907,"ELEMENT_SET_NO":999,"REV_AT_EPOCH":2163,"BSTAR":0.0014284881,"MEAN_MOTION_DOT":0.00415498,"MEAN_MOTION_DDOT":7.4749355e-5},{"OBJECT_NAME":"ISS OBJECT XU","OBJECT_ID":"1998-067XU","EPOCH":"2026-04-19T23:44:59.883936","MEAN_MOTION":15.89766386,"ECCENTRICITY":0.00114166,"INCLINATION":51.6192,"RA_OF_ASC_NODE":212.0904,"ARG_OF_PERICENTER":333.9645,"MEAN_ANOMALY":26.0785,"EPHEMERIS_TYPE":0,"CLASSIFICATION_TYPE":"U","NORAD_CAT_ID":66908,"ELEMENT_SET_NO":999,"REV_AT_EPOCH":2170,"BSTAR":0.0012071787,"MEAN_MOTION_DOT":0.0036531,"MEAN_MOTION_DDOT":6.041013e-5},{"OBJECT_NAME":"SILVERSAT","OBJECT_ID":"1998-067XV","EPOCH":"2026-04-20T07:14:09.580128","MEAN_MOTION":16.10656402,"ECCENTRICITY":0.00137859,"INCLINATION":51.6101,"RA_OF_ASC_NODE":207.3485,"ARG_OF_PERICENTER":338.7955,"MEAN_ANOMALY":21.2486,"EPHEMERIS_TYPE":0,"CLASSIFICATION_TYPE":"U","NORAD_CAT_ID":66909,"ELEMENT_SET_NO":999,"REV_AT_EPOCH":2179,"BSTAR":0.001390282,"MEAN_MOTION_DOT":0.01400443,"MEAN_MOTION_DDOT":0.0013415438},{"OBJECT_NAME":"ISS OBJECT XW","OBJECT_ID":"1998-067XW","EPOCH":"2026-04-19T11:23:27.791808","MEAN_MOTION":15.84996751,"ECCENTRICITY":0.0010632,"INCLINATION":51.6189,"RA_OF_ASC_NODE":215.406,"ARG_OF_PERICENTER":327.7961,"MEAN_ANOMALY":32.2392,"EPHEMERIS_TYPE":0,"CLASSIFICATION_TYPE":"U","NORAD_CAT_ID":66910,"ELEMENT_SET_NO":999,"REV_AT_EPOCH":2161,"BSTAR":0.0012783419,"MEAN_MOTION_DOT":0.00318697,"MEAN_MOTION_DDOT":0},{"OBJECT_NAME":"ISS OBJECT XY","OBJECT_ID":"1998-067XY","EPOCH":"2026-04-20T00:05:09.051936","MEAN_MOTION":15.72772208,"ECCENTRICITY":0.00072455,"INCLINATION":51.6235,"RA_OF_ASC_NODE":216.754,"ARG_OF_PERICENTER":326.6376,"MEAN_ANOMALY":33.4165,"EPHEMERIS_TYPE":0,"CLASSIFICATION_TYPE":"U","NORAD_CAT_ID":66912,"ELEMENT_SET_NO":999,"REV_AT_EPOCH":2163,"BSTAR":0.00087891702,"MEAN_MOTION_DOT":0.0012265,"MEAN_MOTION_DDOT":0},{"OBJECT_NAME":"KNACKSAT-2","OBJECT_ID":"1998-067XZ","EPOCH":"2026-04-19T13:46:53.745024","MEAN_MOTION":15.55149881,"ECCENTRICITY":0.0011885,"INCLINATION":51.6307,"RA_OF_ASC_NODE":228.1722,"ARG_OF_PERICENTER":340.4286,"MEAN_ANOMALY":19.6247,"EPHEMERIS_TYPE":0,"CLASSIFICATION_TYPE":"U","NORAD_CAT_ID":67683,"ELEMENT_SET_NO":999,"REV_AT_EPOCH":1114,"BSTAR":0.00056864,"MEAN_MOTION_DOT":0.00038891,"MEAN_MOTION_DDOT":0},{"OBJECT_NAME":"CORAL","OBJECT_ID":"1998-067YA","EPOCH":"2026-04-19T13:26:11.809824","MEAN_MOTION":15.61515139,"ECCENTRICITY":0.0015604,"INCLINATION":51.6282,"RA_OF_ASC_NODE":226.5714,"ARG_OF_PERICENTER":332.893,"MEAN_ANOMALY":27.1247,"EPHEMERIS_TYPE":0,"CLASSIFICATION_TYPE":"U","NORAD_CAT_ID":67684,"ELEMENT_SET_NO":999,"REV_AT_EPOCH":1116,"BSTAR":0.0011041,"MEAN_MOTION_DOT":0.00097656,"MEAN_MOTION_DDOT":0},{"OBJECT_NAME":"GXIBA-1","OBJECT_ID":"1998-067YB","EPOCH":"2026-04-19T14:51:34.377696","MEAN_MOTION":15.55920446,"ECCENTRICITY":0.0013747,"INCLINATION":51.6296,"RA_OF_ASC_NODE":227.7212,"ARG_OF_PERICENTER":337.6554,"MEAN_ANOMALY":22.3836,"EPHEMERIS_TYPE":0,"CLASSIFICATION_TYPE":"U","NORAD_CAT_ID":67685,"ELEMENT_SET_NO":999,"REV_AT_EPOCH":1115,"BSTAR":0.00064537,"MEAN_MOTION_DOT":0.00045577,"MEAN_MOTION_DDOT":0},{"OBJECT_NAME":"UITMSAT-2","OBJECT_ID":"1998-067YC","EPOCH":"2026-04-20T00:52:31.361376","MEAN_MOTION":15.57425635,"ECCENTRICITY":0.00107524,"INCLINATION":51.63,"RA_OF_ASC_NODE":225.2605,"ARG_OF_PERICENTER":319.1163,"MEAN_ANOMALY":40.9021,"EPHEMERIS_TYPE":0,"CLASSIFICATION_TYPE":"U","NORAD_CAT_ID":67686,"ELEMENT_SET_NO":999,"REV_AT_EPOCH":1122,"BSTAR":0.00069974257,"MEAN_MOTION_DOT":0.00052292,"MEAN_MOTION_DDOT":0},{"OBJECT_NAME":"HMU-SAT2","OBJECT_ID":"1998-067YD","EPOCH":"2026-04-20T00:19:33.394080","MEAN_MOTION":15.55623505,"ECCENTRICITY":0.00099883,"INCLINATION":51.6309,"RA_OF_ASC_NODE":225.8604,"ARG_OF_PERICENTER":320.5824,"MEAN_ANOMALY":39.444,"EPHEMERIS_TYPE":0,"CLASSIFICATION_TYPE":"U","NORAD_CAT_ID":67687,"ELEMENT_SET_NO":999,"REV_AT_EPOCH":1113,"BSTAR":0.00055185911,"MEAN_MOTION_DOT":0.00038363,"MEAN_MOTION_DDOT":0},{"OBJECT_NAME":"LEOPARD","OBJECT_ID":"1998-067YE","EPOCH":"2026-04-19T14:26:37.044960","MEAN_MOTION":15.56718917,"ECCENTRICITY":0.0010319,"INCLINATION":51.6313,"RA_OF_ASC_NODE":227.609,"ARG_OF_PERICENTER":317.4453,"MEAN_ANOMALY":42.5738,"EPHEMERIS_TYPE":0,"CLASSIFICATION_TYPE":"U","NORAD_CAT_ID":67688,"ELEMENT_SET_NO":999,"REV_AT_EPOCH":1107,"BSTAR":0.00073319,"MEAN_MOTION_DOT":0.00053374,"MEAN_MOTION_DDOT":0},{"OBJECT_NAME":"CREW DRAGON 12","OBJECT_ID":"2026-031A","EPOCH":"2026-04-20T03:14:39.820704","MEAN_MOTION":15.48842238,"ECCENTRICITY":0.00066653,"INCLINATION":51.6328,"RA_OF_ASC_NODE":227.4156,"ARG_OF_PERICENTER":328.2959,"MEAN_ANOMALY":31.7627,"EPHEMERIS_TYPE":0,"CLASSIFICATION_TYPE":"U","NORAD_CAT_ID":67796,"ELEMENT_SET_NO":999,"REV_AT_EPOCH":56283,"BSTAR":0.00015271588,"MEAN_MOTION_DOT":7.929e-5,"MEAN_MOTION_DDOT":0},{"OBJECT_NAME":"PROGRESS-MS 33","OBJECT_ID":"2026-058A","EPOCH":"2026-04-20T03:14:39.820704","MEAN_MOTION":15.48842238,"ECCENTRICITY":0.00066653,"INCLINATION":51.6328,"RA_OF_ASC_NODE":227.4156,"ARG_OF_PERICENTER":328.2959,"MEAN_ANOMALY":31.7627,"EPHEMERIS_TYPE":0,"CLASSIFICATION_TYPE":"U","NORAD_CAT_ID":68319,"ELEMENT_SET_NO":999,"REV_AT_EPOCH":316,"BSTAR":0.00015271588,"MEAN_MOTION_DOT":7.929e-5,"MEAN_MOTION_DDOT":0},{"OBJECT_NAME":"CYGNUS NG-24","OBJECT_ID":"2026-079A","EPOCH":"2026-04-20T03:14:39.820704","MEAN_MOTION":15.48842238,"ECCENTRICITY":0.00066653,"INCLINATION":51.6328,"RA_OF_ASC_NODE":227.4156,"ARG_OF_PERICENTER":328.2959,"MEAN_ANOMALY":31.7627,"EPHEMERIS_TYPE":0,"CLASSIFICATION_TYPE":"U","NORAD_CAT_ID":68689,"ELEMENT_SET_NO":999,"REV_AT_EPOCH":131,"BSTAR":0.00015271588,"MEAN_MOTION_DOT":7.929e-5,"MEAN_MOTION_DDOT":0}]
